[{"OBJECT_NAME":"STARLINK-31187","OBJECT_ID":"2024-012D","EPOCH":"2026-03-09T23:07:19.946784","MEAN_MOTION":15.27574505,"ECCENTRICITY":0.00015093,"INCLINATION":43.003,"RA_OF_ASC_NODE":164.066,"ARG_OF_PERICENTER":274.5972,"MEAN_ANOMALY":85.4707,"EPHEMERIS_TYPE":0,"CLASSIFICATION_TYPE":"U","NORAD_CAT_ID":58790,"ELEMENT_SET_NO":999,"REV_AT_EPOCH":12127,"BSTAR":2.1422019e-5,"MEAN_MOTION_DOT":3.27e-6,"MEAN_MOTION_DDOT":0},{"OBJECT_NAME":"TEVEL2-8","OBJECT_ID":"2025-052AF","EPOCH":"2026-03-09T16:02:08.542752","MEAN_MOTION":15.28392908,"ECCENTRICITY":0.0008031,"INCLINATION":97.4055,"RA_OF_ASC_NODE":324.2923,"ARG_OF_PERICENTER":124.9191,"MEAN_ANOMALY":235.2804,"EPHEMERIS_TYPE":0,"CLASSIFICATION_TYPE":"U","NORAD_CAT_ID":63239,"ELEMENT_SET_NO":999,"REV_AT_EPOCH":5480,"BSTAR":0.00069303947,"MEAN_MOTION_DOT":0.0001913,"MEAN_MOTION_DDOT":0}]
